[{"OBJECT_NAME":"STARLINK-4164","OBJECT_ID":"2022-086AS","EPOCH":"2026-03-09T19:31:35.370912","MEAN_MOTION":15.08824477,"ECCENTRICITY":0.00012812,"INCLINATION":53.2165,"RA_OF_ASC_NODE":183.5658,"ARG_OF_PERICENTER":87.221,"MEAN_ANOMALY":272.8929,"EPHEMERIS_TYPE":0,"CLASSIFICATION_TYPE":"U","NORAD_CAT_ID":53282,"ELEMENT_SET_NO":999,"REV_AT_EPOCH":20121,"BSTAR":-8.1993592e-5,"MEAN_MOTION_DOT":-1.592e-5,"MEAN_MOTION_DDOT":0},{"OBJECT_NAME":"AVUM R\/B","OBJECT_ID":"2015-028B","EPOCH":"2026-03-09T15:47:10.915008","MEAN_MOTION":15.38120394,"ECCENTRICITY":0.01316946,"INCLINATION":98.6577,"RA_OF_ASC_NODE":312.3046,"ARG_OF_PERICENTER":250.9525,"MEAN_ANOMALY":107.7413,"EPHEMERIS_TYPE":0,"CLASSIFICATION_TYPE":"U","NORAD_CAT_ID":40698,"ELEMENT_SET_NO":999,"REV_AT_EPOCH":58785,"BSTAR":0.00031736457,"MEAN_MOTION_DOT":0.00015963,"MEAN_MOTION_DDOT":0}]
